NAVSTAR 77 (USA 289)    
1 43873U 18109A   24128.45109882  .00000051  00000+0  00000+0 0  9992
2 43873  55.2819 122.6366 0028729 195.9211 341.1436  2.00553992 39615
